IDEFIX & ARIANE 42P R/B 
1 27422U 02021B   25361.82651926  .00000388  00000+0  16396-3 0  9994
2 27422  98.5804 296.3229 0012667  42.8157 317.4011 14.30961561233747
AQUA                    
1 27424U 02022A   25360.99159258  .00001315  00000+0  27355-3 0  9993
2 27424  98.4058 322.1038 0001849  99.7002 302.1298 14.61764548258111
CZ-4B R/B               
1 27432U 02024C   25361.65151211  .00000050  00000+0  48943-4 0  9991
2 27432  98.8978  50.3698 0049459 226.7907 246.5620 14.14530928219053
MIDORI II (ADEOS-II)    
1 27597U 02056A   25361.83722772  .00000402  00000+0  17597-3 0  9995
2 27597  98.7656 314.8743 0000947 143.9655 216.1590 14.29216538200036
H-2A R/B                
1 27601U 02056E   25361.75606816  .00000515  00000+0  19523-3 0  9998
2 27601  98.3087 319.9166 0070751  16.9183  47.3331 14.33689844203800
CZ-4B R/B               
1 28059U 03049C   25361.72561591  .00000539  00000+0  13508-3 0  9999
2 28059  98.6800 348.8564 0049391  91.2755 269.4100 14.54924155176130
CZ-2C R/B               
1 28222U 04012C   25361.72293027  .00044668  00000+0  62196-3 0  9996
2 28222  97.7397  55.5920 0016705 212.2831 147.7402 15.56661482193051
SL-16 R/B               
1 28353U 04021B   25361.75421108  .00000270  00000+0  16524-3 0  9992
2 28353  71.0003  23.4561 0004479 174.5183 185.5990 14.14581186112660
CZ-4B R/B               
1 28415U 04035C   25361.62849609  .00010058  00000+0  36963-3 0  9996
2 28415  97.3599  31.7747 0031907 222.1741 137.7043 15.27618175168904
CZ-2C R/B               
1 28480U 04046B   25361.75410840  .00000363  00000+0  14993-3 0  9992
2 28480  98.1997 276.1996 0139745   8.1191 352.2206 14.26950283 98249
ARIANE 5 R/B            
1 28499U 04049H   25361.47611071  .00001536  00000+0  17613-3 0  9998
2 28499  98.2531 162.2867 0083594 224.6053 134.8414 14.85051254135071
CZ-2D R/B               
1 28738U 05024B   25361.02080426  .00036893  00000+0  56968-3 0  9993
2 28738  97.3631   8.8497 0003316 303.9804  56.1134 15.54032763128473
