CCSDS_OMM_VERS = 2.0
CREATION_DATE  = 
ORIGINATOR     = 

OBJECT_NAME    = IDEFIX & ARIANE 42P R/B
OBJECT_ID      = 2002-021B
CENTER_NAME    = EARTH
REF_FRAME      = TEME
TIME_SYSTEM    = UTC
MEAN_ELEMENT_THEORY = SGP/SGP4

EPOCH          = 2025-12-27T19:50:11.264064
MEAN_MOTION    = 14.30961561
ECCENTRICITY   = .0012667
INCLINATION    = 98.5804
RA_OF_ASC_NODE = 296.3229
ARG_OF_PERICENTER = 42.8157
MEAN_ANOMALY   = 317.4011

EPHEMERIS_TYPE = 0
CLASSIFICATION_TYPE = U
NORAD_CAT_ID   = 27422
ELEMENT_SET_NO = 999
REV_AT_EPOCH   = 23374
BSTAR          = .16396E-3
MEAN_MOTION_DOT = .388E-5
MEAN_MOTION_DDOT = 0

CCSDS_OMM_VERS = 2.0
CREATION_DATE  = 
ORIGINATOR     = 

OBJECT_NAME    = AQUA
OBJECT_ID      = 2002-022A
CENTER_NAME    = EARTH
REF_FRAME      = TEME
TIME_SYSTEM    = UTC
MEAN_ELEMENT_THEORY = SGP/SGP4

EPOCH          = 2025-12-26T23:47:53.598912
MEAN_MOTION    = 14.61764548
ECCENTRICITY   = .00018494
INCLINATION    = 98.4058
RA_OF_ASC_NODE = 322.1038
ARG_OF_PERICENTER = 99.7002
MEAN_ANOMALY   = 302.1298

EPHEMERIS_TYPE = 0
CLASSIFICATION_TYPE = U
NORAD_CAT_ID   = 27424
ELEMENT_SET_NO = 999
REV_AT_EPOCH   = 25811
BSTAR          = .27355086E-3
MEAN_MOTION_DOT = .1315E-4
MEAN_MOTION_DDOT = 0

CCSDS_OMM_VERS = 2.0
CREATION_DATE  = 
ORIGINATOR     = 

OBJECT_NAME    = CZ-4B R/B
OBJECT_ID      = 2002-024C
CENTER_NAME    = EARTH
REF_FRAME      = TEME
TIME_SYSTEM    = UTC
MEAN_ELEMENT_THEORY = SGP/SGP4

EPOCH          = 2025-12-27T15:38:10.646304
MEAN_MOTION    = 14.14530928
ECCENTRICITY   = .0049459
INCLINATION    = 98.8978
RA_OF_ASC_NODE = 50.3698
ARG_OF_PERICENTER = 226.7907
MEAN_ANOMALY   = 246.5620

EPHEMERIS_TYPE = 0
CLASSIFICATION_TYPE = U
NORAD_CAT_ID   = 27432
ELEMENT_SET_NO = 999
REV_AT_EPOCH   = 21905
BSTAR          = .48943E-4
MEAN_MOTION_DOT = .5E-6
MEAN_MOTION_DDOT = 0

CCSDS_OMM_VERS = 2.0
CREATION_DATE  = 
ORIGINATOR     = 

OBJECT_NAME    = MIDORI II (ADEOS-II)
OBJECT_ID      = 2002-056A
CENTER_NAME    = EARTH
REF_FRAME      = TEME
TIME_SYSTEM    = UTC
MEAN_ELEMENT_THEORY = SGP/SGP4

EPOCH          = 2025-12-27T20:05:36.475008
MEAN_MOTION    = 14.29216538
ECCENTRICITY   = .0000947
INCLINATION    = 98.7656
RA_OF_ASC_NODE = 314.8743
ARG_OF_PERICENTER = 143.9655
MEAN_ANOMALY   = 216.1590

EPHEMERIS_TYPE = 0
CLASSIFICATION_TYPE = U
NORAD_CAT_ID   = 27597
ELEMENT_SET_NO = 999
REV_AT_EPOCH   = 20003
BSTAR          = .17597E-3
MEAN_MOTION_DOT = .402E-5
MEAN_MOTION_DDOT = 0

CCSDS_OMM_VERS = 2.0
CREATION_DATE  = 
ORIGINATOR     = 

OBJECT_NAME    = H-2A R/B
OBJECT_ID      = 2002-056E
CENTER_NAME    = EARTH
REF_FRAME      = TEME
TIME_SYSTEM    = UTC
MEAN_ELEMENT_THEORY = SGP/SGP4

EPOCH          = 2025-12-27T18:08:44.289024
MEAN_MOTION    = 14.33689844
ECCENTRICITY   = .0070751
INCLINATION    = 98.3087
RA_OF_ASC_NODE = 319.9166
ARG_OF_PERICENTER = 16.9183
MEAN_ANOMALY   = 47.3331

EPHEMERIS_TYPE = 0
CLASSIFICATION_TYPE = U
NORAD_CAT_ID   = 27601
ELEMENT_SET_NO = 999
REV_AT_EPOCH   = 20380
BSTAR          = .19523E-3
MEAN_MOTION_DOT = .515E-5
MEAN_MOTION_DDOT = 0

CCSDS_OMM_VERS = 2.0
CREATION_DATE  = 
ORIGINATOR     = 

OBJECT_NAME    = CZ-4B R/B
OBJECT_ID      = 2003-049C
CENTER_NAME    = EARTH
REF_FRAME      = TEME
TIME_SYSTEM    = UTC
MEAN_ELEMENT_THEORY = SGP/SGP4

EPOCH          = 2025-12-27T17:24:53.214624
MEAN_MOTION    = 14.54924155
ECCENTRICITY   = .0049391
INCLINATION    = 98.6800
RA_OF_ASC_NODE = 348.8564
ARG_OF_PERICENTER = 91.2755
MEAN_ANOMALY   = 269.4100

EPHEMERIS_TYPE = 0
CLASSIFICATION_TYPE = U
NORAD_CAT_ID   = 28059
ELEMENT_SET_NO = 999
REV_AT_EPOCH   = 17613
BSTAR          = .13508E-3
MEAN_MOTION_DOT = .539E-5
MEAN_MOTION_DDOT = 0

CCSDS_OMM_VERS = 2.0
CREATION_DATE  = 
ORIGINATOR     = 

OBJECT_NAME    = CZ-2C R/B
OBJECT_ID      = 2004-012C
CENTER_NAME    = EARTH
REF_FRAME      = TEME
TIME_SYSTEM    = UTC
MEAN_ELEMENT_THEORY = SGP/SGP4

EPOCH          = 2025-12-27T17:21:01.175328
MEAN_MOTION    = 15.56661482
ECCENTRICITY   = .0016705
INCLINATION    = 97.7397
RA_OF_ASC_NODE = 55.5920
ARG_OF_PERICENTER = 212.2831
MEAN_ANOMALY   = 147.7402

EPHEMERIS_TYPE = 0
CLASSIFICATION_TYPE = U
NORAD_CAT_ID   = 28222
ELEMENT_SET_NO = 999
REV_AT_EPOCH   = 19305
BSTAR          = .62196E-3
MEAN_MOTION_DOT = .44668E-3
MEAN_MOTION_DDOT = 0

CCSDS_OMM_VERS = 2.0
CREATION_DATE  = 
ORIGINATOR     = 

OBJECT_NAME    = SL-16 R/B
OBJECT_ID      = 2004-021B
CENTER_NAME    = EARTH
REF_FRAME      = TEME
TIME_SYSTEM    = UTC
MEAN_ELEMENT_THEORY = SGP/SGP4

EPOCH          = 2025-12-27T18:06:03.837312
MEAN_MOTION    = 14.14581186
ECCENTRICITY   = .0004479
INCLINATION    = 71.0003
RA_OF_ASC_NODE = 23.4561
ARG_OF_PERICENTER = 174.5183
MEAN_ANOMALY   = 185.5990

EPHEMERIS_TYPE = 0
CLASSIFICATION_TYPE = U
NORAD_CAT_ID   = 28353
ELEMENT_SET_NO = 999
REV_AT_EPOCH   = 11266
BSTAR          = .16524E-3
MEAN_MOTION_DOT = .27E-5
MEAN_MOTION_DDOT = 0

CCSDS_OMM_VERS = 2.0
CREATION_DATE  = 
ORIGINATOR     = 

OBJECT_NAME    = CZ-4B R/B
OBJECT_ID      = 2004-035C
CENTER_NAME    = EARTH
REF_FRAME      = TEME
TIME_SYSTEM    = UTC
MEAN_ELEMENT_THEORY = SGP/SGP4

EPOCH          = 2025-12-27T15:05:02.062176
MEAN_MOTION    = 15.27618175
ECCENTRICITY   = .0031907
INCLINATION    = 97.3599
RA_OF_ASC_NODE = 31.7747
ARG_OF_PERICENTER = 222.1741
MEAN_ANOMALY   = 137.7043

EPHEMERIS_TYPE = 0
CLASSIFICATION_TYPE = U
NORAD_CAT_ID   = 28415
ELEMENT_SET_NO = 999
REV_AT_EPOCH   = 16890
BSTAR          = .36963E-3
MEAN_MOTION_DOT = .10058E-3
MEAN_MOTION_DDOT = 0

CCSDS_OMM_VERS = 2.0
CREATION_DATE  = 
ORIGINATOR     = 

OBJECT_NAME    = CZ-2C R/B
OBJECT_ID      = 2004-046B
CENTER_NAME    = EARTH
REF_FRAME      = TEME
TIME_SYSTEM    = UTC
MEAN_ELEMENT_THEORY = SGP/SGP4

EPOCH          = 2025-12-27T18:05:54.965760
MEAN_MOTION    = 14.26950283
ECCENTRICITY   = .0139745
INCLINATION    = 98.1997
RA_OF_ASC_NODE = 276.1996
ARG_OF_PERICENTER = 8.1191
MEAN_ANOMALY   = 352.2206

EPHEMERIS_TYPE = 0
CLASSIFICATION_TYPE = U
NORAD_CAT_ID   = 28480
ELEMENT_SET_NO = 999
REV_AT_EPOCH   = 9824
BSTAR          = .14993E-3
MEAN_MOTION_DOT = .363E-5
MEAN_MOTION_DDOT = 0

CCSDS_OMM_VERS = 2.0
CREATION_DATE  = 
ORIGINATOR     = 

OBJECT_NAME    = ARIANE 5 R/B
OBJECT_ID      = 2004-049H
CENTER_NAME    = EARTH
REF_FRAME      = TEME
TIME_SYSTEM    = UTC
MEAN_ELEMENT_THEORY = SGP/SGP4

EPOCH          = 2025-12-27T11:25:35.965344
MEAN_MOTION    = 14.85051254
ECCENTRICITY   = .0083594
INCLINATION    = 98.2531
RA_OF_ASC_NODE = 162.2867
ARG_OF_PERICENTER = 224.6053
MEAN_ANOMALY   = 134.8414

EPHEMERIS_TYPE = 0
CLASSIFICATION_TYPE = U
NORAD_CAT_ID   = 28499
ELEMENT_SET_NO = 999
REV_AT_EPOCH   = 13507
BSTAR          = .17613E-3
MEAN_MOTION_DOT = .1536E-4
MEAN_MOTION_DDOT = 0

CCSDS_OMM_VERS = 2.0
CREATION_DATE  = 
ORIGINATOR     = 

OBJECT_NAME    = CZ-2D R/B
OBJECT_ID      = 2005-024B
CENTER_NAME    = EARTH
REF_FRAME      = TEME
TIME_SYSTEM    = UTC
MEAN_ELEMENT_THEORY = SGP/SGP4

EPOCH          = 2025-12-27T00:29:57.488064
MEAN_MOTION    = 15.54032763
ECCENTRICITY   = .00033166
INCLINATION    = 97.3631
RA_OF_ASC_NODE = 8.8497
ARG_OF_PERICENTER = 303.9804
MEAN_ANOMALY   = 56.1134

EPHEMERIS_TYPE = 0
CLASSIFICATION_TYPE = U
NORAD_CAT_ID   = 28738
ELEMENT_SET_NO = 999
REV_AT_EPOCH   = 12847
BSTAR          = .56968118E-3
MEAN_MOTION_DOT = .36893E-3
MEAN_MOTION_DDOT = 0

